OBJECT_NAME,OBJECT_ID,EPOCH,MEAN_MOTION,ECCENTRICITY,INCLINATION,RA_OF_ASC_NODE,ARG_OF_PERICENTER,MEAN_ANOMALY,EPHEMERIS_TYPE,CLASSIFICATION_TYPE,NORAD_CAT_ID,ELEMENT_SET_NO,REV_AT_EPOCH,BSTAR,MEAN_MOTION_DOT,MEAN_MOTION_DDOT
CUTE-1 (CO-55),2003-031E,2026-05-21T11:35:54.082176,14.24317125,.00082947,98.6743,150.3782,262.0752,97.9485,0,U,27844,999,18787,.93672672E-4,.173E-5,0
CUBESAT XI-IV (CO-57),2003-031J,2026-05-21T11:00:01.710432,14.23604667,.00082197,98.6774,150.0876,283.6237,76.4026,0,U,27848,999,18757,.85962476E-4,.152E-5,0
CUBESAT XI-V,2005-043F,2026-05-21T08:37:18.109632,14.72549818,.00128224,98.2957,296.4236,292.4191,67.5657,0,U,28895,999,9780,.13899984E-3,.831E-5,0
CUTE-1.7+APD II (CO-65),2008-021C,2026-05-21T14:20:19.061376,15.09163611,.00107184,97.8272,122.4718,114.5514,245.6833,0,U,32785,999,98118,.19266014E-3,.2996E-4,0
CANX-2,2008-021H,2026-05-21T07:17:27.888000,15.05391524,.00115843,97.8621,120.5667,129.7813,230.4435,0,U,32790,999,98076,.18093954E-3,.2533E-4,0
SEEDS II (CO-66),2008-021J,2026-05-21T10:12:59.215968,15.31723964,.00046083,97.7526,138.0681,67.6438,292.5291,0,U,32791,999,98319,.41774398E-3,.12724E-3,0
SWISSCUBE,2009-051B,2026-05-21T05:04:49.399104,14.62421846,.00056865,98.4053,48.6290,305.3397,54.7272,0,U,35932,999,88521,.13699775E-3,.644E-5,0
BEESAT-1,2009-051C,2026-05-20T10:53:59.071488,14.61668848,.00045104,98.3982,47.5514,327.5835,32.5088,0,U,35933,999,88513,.11465798E-3,.522E-5,0
ITUPSAT1,2009-051E,2026-05-21T04:11:14.436096,14.60394013,.00068628,98.4067,47.5032,332.8166,27.2673,0,U,35935,999,88479,.1117307E-3,.492E-5,0
TISAT 1,2010-035E,2026-05-20T12:55:07.729824,15.30538753,.00028053,98.0706,84.6627,39.3668,320.7774,0,U,36799,999,86347,.47855205E-3,.14056E-3,0
AEROCUBE 4.5A,2012-048K,2026-05-21T06:06:17.515296,15.80022698,.0018264,64.6283,124.2160,215.5677,144.4262,0,U,38767,999,36838,.77914869E-3,.14966E-2,0
STRAND-1,2013-009E,2026-05-21T11:02:53.586816,14.37145301,.00077108,98.3916,322.3538,317.1880,42.8706,0,U,39090,999,69322,.674022E-4,.158E-5,0
BRITE-AUSTRIA,2013-009F,2026-05-21T11:04:53.469408,14.36530086,.00094156,98.3989,321.5600,325.9302,34.1279,0,U,39091,999,69321,.50167539E-4,.105E-5,0
NEE-01 PEGASO,2013-018B,2026-05-20T07:53:49.185600,14.93503212,.00113766,98.1188,283.5678,253.7412,106.2555,0,U,39151,999,70654,.15394882E-3,.156E-4,0
POPACS 2,2013-055E,2026-05-21T12:45:19.414080,14.90574815,.04182978,80.9912,174.6932,279.5333,75.8856,0,U,39269,999,65924,.15216593E-3,.885E-4,0
POPACS 3,2013-055F,2026-05-20T18:20:36.132576,14.55431784,.05546617,81.0017,258.9012,153.3897,209.6959,0,U,39270,999,63456,.28350046E-3,.11944E-3,0
ZACUBE-1 (TSHEPISOSAT),2013-066B,2026-05-21T08:14:30.622272,15.00958035,.00407554,97.8120,103.5350,342.8760,17.1086,0,U,39417,999,67670,.24286166E-3,.3087E-4,0
WNISAT-1,2013-066H,2026-05-21T09:04:40.442304,14.58023706,.01621184,97.7170,292.4423,316.7149,42.1407,0,U,39423,999,66282,.65762459E-4,.31E-5,0
TRITON-1,2013-066M,2026-05-21T14:52:37.502400,14.81577289,.00893358,97.8262,52.0319,321.9125,37.5794,0,U,39427,999,67015,.17701365E-3,.1431E-4,0
GOMX-1,2013-066Q,2026-05-21T15:04:42.231648,14.69340698,.01291412,97.6495,343.7662,162.1558,198.4247,0,U,39430,999,66601,.24287176E-3,.1579E-4,0
CUBEBUG-2 (LO-74),2013-066AA,2026-05-21T08:00:19.307520,14.93524684,.00594444,97.8896,90.2065,115.7088,245.0285,0,U,39440,999,67298,.26532714E-3,.2831E-4,0
NEE-02 KRYSAOR,2013-066AB,2026-05-21T11:40:57.355680,14.86501187,.00667771,97.8886,80.8966,156.0178,204.4173,0,U,39441,999,67223,.12326223E-3,.1077E-4,0
FUNCUBE-1 (AO-73),2013-066AE,2026-05-20T16:12:59.664384,15.09093359,.0034836,97.8265,111.5579,298.9376,60.8360,0,U,39444,999,67551,.33101689E-3,.5251E-4,0
UWE-3,2013-066AG,2026-05-21T08:14:57.890976,14.96763327,.00503871,97.8681,97.2451,50.5298,310.0365,0,U,39446,999,67356,.2696443E-3,.3101E-4,0
BRITE-CA1 (TORONTO),2014-033L,2026-05-21T14:34:17.992416,14.72635475,.00786269,97.9704,271.0313,3.0610,357.1063,0,U,40020,999,63830,.67509139E-4,.397E-5,0
DUCHIFAT-1,2014-033M,2026-05-21T02:42:36.217152,15.59269252,.00062834,98.0488,196.5891,165.9134,194.2297,0,U,40021,999,65152,.72159707E-3,.56933E-3,0
NANOSATC-BR1,2014-033Q,2026-05-21T12:56:22.339680,15.30507615,.00016804,98.0740,171.5836,266.7816,93.3231,0,U,40024,999,64990,.37747564E-3,.11053E-3,0
QB50P1,2014-033R,2026-05-21T10:53:54.553632,15.17791786,.00075374,98.0976,150.7353,327.3362,32.7403,0,U,40025,999,64897,.29137509E-3,.5817E-4,0
QB50P2,2014-033Y,2026-05-21T06:49:03.096768,15.14768104,.00056776,98.0755,136.4993,266.1096,93.9485,0,U,40032,999,64859,.25694764E-3,.4693E-4,0
PERSEUS-M2,2014-033AD,2026-05-21T13:36:11.741184,14.95417780,.00130676,97.9966,91.5709,34.0322,326.1734,0,U,40037,999,64680,.54744158E-4,.544E-5,0
